{
    "links": {
        "self": "http://www.neowsapp.com/rest/v1/neo/3776121?api_key=iIulBulltgU6a56xZRHN4H3l9WmuAYTsLGpBGhQ2"
    },
    "id": "3776121",
    "neo_reference_id": "3776121",
    "name": "(2017 MS7)",
    "designation": "2017 MS7",
    "nasa_jpl_url": "http://ssd.jpl.nasa.gov/sbdb.cgi?sstr=3776121",
    "absolute_magnitude_h": 22.4,
    "estimated_diameter": {
        "kilometers": {
            "estimated_diameter_min": 0.0880146521,
            "estimated_diameter_max": 0.1968067451
        },
        "meters": {
            "estimated_diameter_min": 88.0146520901,
            "estimated_diameter_max": 196.8067450894
        },
        "miles": {
            "estimated_diameter_min": 0.0546897524,
            "estimated_diameter_max": 0.122290004
        },
        "feet": {
            "estimated_diameter_min": 288.7619911632,
            "estimated_diameter_max": 645.6914415591
        }
    },
    "is_potentially_hazardous_asteroid": false,
    "close_approach_data": [
        {
            "close_approach_date": "2017-07-05",
            "close_approach_date_full": "2017-Jul-05 07:55",
            "epoch_date_close_approach": 1499241300000,
            "relative_velocity": {
                "kilometers_per_second": "20.0916900766",
                "kilometers_per_hour": "72330.0842757074",
                "miles_per_hour": "44943.1015323139"
            },
            "miss_distance": {
                "astronomical": "0.0882891952",
                "lunar": "34.3444969328",
                "kilometers": "13207875.545934224",
                "miles": "8206993.3009073312"
            },
            "orbiting_body": "Earth"
        }
    ],
    "orbital_data": {
        "orbit_id": "3",
        "orbit_determination_date": "2017-07-02 06:22:11",
        "first_observation_date": "2017-06-27",
        "last_observation_date": "2017-07-02",
        "data_arc_in_days": 5,
        "observations_used": 47,
        "orbit_uncertainty": "9",
        "minimum_orbit_intersection": ".00390316",
        "jupiter_tisserand_invariant": "3.217",
        "epoch_osculation": "2457933.5",
        "eccentricity": ".6848708052877667",
        "semi_major_axis": "2.316605544229992",
        "inclination": "3.475206008296708",
        "ascending_node_longitude": "245.9767828626935",
        "orbital_period": "1287.883454846985",
        "perihelion_distance": ".7300300396190925",
        "perihelion_argument": "114.9412434971975",
        "aphelion_distance": "3.903181048840892",
        "perihelion_time": "2457985.555366350978",
        "mean_anomaly": "345.4490467939286",
        "mean_motion": ".2795283988198854",
        "equinox": "J2000",
        "orbit_class": {
            "orbit_class_type": "APO",
            "orbit_class_description": "Near-Earth asteroid orbits which cross the Earth’s orbit similar to that of 1862 Apollo",
            "orbit_class_range": "a (semi-major axis) > 1.0 AU; q (perihelion) < 1.017 AU"
        }
    },
    "is_sentry_object": false
}